IRIDIUM 154             
1 43574U 18061F   23085.70178502  .00000580  00000+0  20008-3 0  9992
2 43574  86.4048 189.2592 0002324  90.1056 270.0406 14.34221974244492
IRIDIUM 163             
1 43575U 18061G   23085.82229796  .00000700  00000+0  24271-3 0  9998
2 43575  86.4046 189.1605 0002482 100.5280 259.6196 14.34217356244482
IRIDIUM 156             
1 43576U 18061H   23086.21553287  .00000677  00000+0  23469-3 0  9999
2 43576  86.4046 189.0025 0002173 105.0011 255.1425 14.34225383244527
IRIDIUM 164             
1 43577U 18061J   23085.84766662  .00000681  00000+0  23628-3 0  9993
2 43577  86.4048 189.1779 0002335  95.5186 264.6276 14.34215071244525
IRIDIUM 159             
1 43578U 18061K   23085.81595664  .00000709  00000+0  24624-3 0  9991
2 43578  86.4044 189.1531 0002153  93.6453 266.4989 14.34219552244486
IRIDIUM 180             
1 43922U 19002A   23086.16429180  .00000070  00000+0  18007-4 0  9998
2 43922  86.3947 125.9707 0002416  92.6388 267.5084 14.34217292220189
IRIDIUM 176             
1 43923U 19002B   23085.59895099  .00001939  00000+0  30353-3 0  9993
2 43923  86.6078 126.2488 0002391 100.2129 259.9357 14.72254320225840
IRIDIUM 168             
1 43924U 19002C   23086.15794540  .00000517  00000+0  17769-3 0  9993
2 43924  86.3950 126.0174 0002320  90.2191 269.9271 14.34221140220120
IRIDIUM 173             
1 43925U 19002D   23085.86618783  .00000531  00000+0  18250-3 0  9997
2 43925  86.3947 126.0765 0002446  90.6132 269.5344 14.34222862220063
IRIDIUM 169             
1 43926U 19002E   23085.90795189  .00000713  00000+0  22655-3 0  9995
2 43926  86.4273 157.6407 0001636 249.1268 110.9755 14.38607113220820
IRIDIUM 172             
1 43927U 19002F   23085.85984683  .00000060  00000+0  14332-4 0  9998
2 43927  86.3947 126.0834 0002337  92.1874 267.9589 14.34216223220079
IRIDIUM 175             
1 43928U 19002G   23085.86436905  .00001863  00000+0  29147-3 0  9990
2 43928  86.1487 124.6043 0002444  99.0730 261.0763 14.72248392225875
IRIDIUM 171             
1 43929U 19002H   23085.91058525  .00000524  00000+0  17986-3 0  9996
2 43929  86.3956 126.2378 0002419  90.4131 269.7342 14.34222658220070
IRIDIUM 170             
1 43930U 19002J   23085.80904088  .00001819  00000+0  28444-3 0  9999
2 43930  86.6078 126.1660 0002473  97.3146 262.8352 14.72260169225885
IRIDIUM 167             
1 43931U 19002K   23085.83447644  .00000531  00000+0  18261-3 0  9999
2 43931  86.3948 126.1060 0002501  90.2253 269.9230 14.34218660220061
